{
  "norad_id": 63462,
  "name": "STARLINK-33691",
  "history": [
    {
      "epoch": "2026-03-28T20:50:56.158656Z",
      "apogee_km": 483.64960257245,
      "perigee_km": 482.36807775242414,
      "latitude_deg": 8.131807359099694e-06,
      "longitude_deg": 12.121343105692251,
      "height_km": 482.5526753973312,
      "semi_major_axis_km": 6861.145840162437,
      "eccentricity": 9.339e-05,
      "inclination_deg": 43.0024,
      "raan_deg": 151.1383,
      "arg_perigee_deg": 291.2951,
      "mean_anomaly_deg": 68.7801,
      "mean_motion_rev_day": 15.27593444
    }
  ]
}